[{"OBJECT_NAME":"STARLINK-31948","OBJECT_ID":"2024-106V","EPOCH":"2026-03-09T01:33:20.364192","MEAN_MOTION":15.27573686,"ECCENTRICITY":0.00017313,"INCLINATION":42.9926,"RA_OF_ASC_NODE":332.811,"ARG_OF_PERICENTER":11.3368,"MEAN_ANOMALY":348.7522,"EPHEMERIS_TYPE":0,"CLASSIFICATION_TYPE":"U","NORAD_CAT_ID":59941,"ELEMENT_SET_NO":999,"REV_AT_EPOCH":10046,"BSTAR":4.4005268e-5,"MEAN_MOTION_DOT":9.49e-6,"MEAN_MOTION_DDOT":0},{"OBJECT_NAME":"FLOCK 4G-4","OBJECT_ID":"2025-009BC","EPOCH":"2026-03-09T18:04:48.344448","MEAN_MOTION":15.26803327,"ECCENTRICITY":0.00015979,"INCLINATION":97.3994,"RA_OF_ASC_NODE":150.7963,"ARG_OF_PERICENTER":343.4316,"MEAN_ANOMALY":16.687,"EPHEMERIS_TYPE":0,"CLASSIFICATION_TYPE":"U","NORAD_CAT_ID":62659,"ELEMENT_SET_NO":999,"REV_AT_EPOCH":12132,"BSTAR":0.00045294179,"MEAN_MOTION_DOT":0.00011866,"MEAN_MOTION_DDOT":0}]
